; Small synthetic preview sample; not a printer-ready file
G21
G90
M83
G0 X80 Y80 Z0.2
G1 X120 Y80 E2 F1200
G1 X120 Y120 E2 F1200
G1 X80 Y120 E2 F1200
G1 X80 Y80 E2 F1200
G0 X80 Y80 Z0.4
G1 X120 Y80 E2 F1200
G1 X120 Y120 E2 F1200
G1 X80 Y120 E2 F1200
G1 X80 Y80 E2 F1200
G0 X80 Y80 Z0.6
G1 X120 Y80 E2 F1200
G1 X120 Y120 E2 F1200
G1 X80 Y120 E2 F1200
G1 X80 Y80 E2 F1200
G0 X80 Y80 Z0.8
G1 X120 Y80 E2 F1200
G1 X120 Y120 E2 F1200
G1 X80 Y120 E2 F1200
G1 X80 Y80 E2 F1200
G0 X80 Y80 Z1.0
G1 X120 Y80 E2 F1200
G1 X120 Y120 E2 F1200
G1 X80 Y120 E2 F1200
G1 X80 Y80 E2 F1200
G0 X80 Y80 Z1.2
G1 X120 Y80 E2 F1200
G1 X120 Y120 E2 F1200
G1 X80 Y120 E2 F1200
G1 X80 Y80 E2 F1200
G0 X80 Y80 Z1.4
G1 X120 Y80 E2 F1200
G1 X120 Y120 E2 F1200
G1 X80 Y120 E2 F1200
G1 X80 Y80 E2 F1200
G0 X80 Y80 Z1.6
G1 X120 Y80 E2 F1200
G1 X120 Y120 E2 F1200
G1 X80 Y120 E2 F1200
G1 X80 Y80 E2 F1200
G0 X80 Y80 Z1.8
G1 X120 Y80 E2 F1200
G1 X120 Y120 E2 F1200
G1 X80 Y120 E2 F1200
G1 X80 Y80 E2 F1200
G0 X80 Y80 Z2.0
G1 X120 Y80 E2 F1200
G1 X120 Y120 E2 F1200
G1 X80 Y120 E2 F1200
G1 X80 Y80 E2 F1200
G0 X80 Y80 Z2.2
G1 X120 Y80 E2 F1200
G1 X120 Y120 E2 F1200
G1 X80 Y120 E2 F1200
G1 X80 Y80 E2 F1200
G0 X80 Y80 Z2.4
G1 X120 Y80 E2 F1200
G1 X120 Y120 E2 F1200
G1 X80 Y120 E2 F1200
G1 X80 Y80 E2 F1200
G0 X80 Y80 Z2.6
G1 X120 Y80 E2 F1200
G1 X120 Y120 E2 F1200
G1 X80 Y120 E2 F1200
G1 X80 Y80 E2 F1200
G0 X80 Y80 Z2.8
G1 X120 Y80 E2 F1200
G1 X120 Y120 E2 F1200
G1 X80 Y120 E2 F1200
G1 X80 Y80 E2 F1200
G0 X80 Y80 Z3.0
G1 X120 Y80 E2 F1200
G1 X120 Y120 E2 F1200
G1 X80 Y120 E2 F1200
G1 X80 Y80 E2 F1200
G0 X80 Y80 Z3.2
G1 X120 Y80 E2 F1200
G1 X120 Y120 E2 F1200
G1 X80 Y120 E2 F1200
G1 X80 Y80 E2 F1200
G0 X80 Y80 Z3.4
G1 X120 Y80 E2 F1200
G1 X120 Y120 E2 F1200
G1 X80 Y120 E2 F1200
G1 X80 Y80 E2 F1200
G0 X80 Y80 Z3.6
G1 X120 Y80 E2 F1200
G1 X120 Y120 E2 F1200
G1 X80 Y120 E2 F1200
G1 X80 Y80 E2 F1200
G0 X80 Y80 Z3.8
G1 X120 Y80 E2 F1200
G1 X120 Y120 E2 F1200
G1 X80 Y120 E2 F1200
G1 X80 Y80 E2 F1200
G0 X80 Y80 Z4.0
G1 X120 Y80 E2 F1200
G1 X120 Y120 E2 F1200
G1 X80 Y120 E2 F1200
G1 X80 Y80 E2 F1200
G0 X80 Y80 Z4.2
G1 X120 Y80 E2 F1200
G1 X120 Y120 E2 F1200
G1 X80 Y120 E2 F1200
G1 X80 Y80 E2 F1200
G0 X80 Y80 Z4.4
G1 X120 Y80 E2 F1200
G1 X120 Y120 E2 F1200
G1 X80 Y120 E2 F1200
G1 X80 Y80 E2 F1200
G0 X80 Y80 Z4.6
G1 X120 Y80 E2 F1200
G1 X120 Y120 E2 F1200
G1 X80 Y120 E2 F1200
G1 X80 Y80 E2 F1200
G0 X80 Y80 Z4.8
G1 X120 Y80 E2 F1200
G1 X120 Y120 E2 F1200
G1 X80 Y120 E2 F1200
G1 X80 Y80 E2 F1200
G0 X80 Y80 Z5.0
G1 X120 Y80 E2 F1200
G1 X120 Y120 E2 F1200
G1 X80 Y120 E2 F1200
G1 X80 Y80 E2 F1200
G0 X80 Y80 Z5.2
G1 X120 Y80 E2 F1200
G1 X120 Y120 E2 F1200
G1 X80 Y120 E2 F1200
G1 X80 Y80 E2 F1200
G0 X80 Y80 Z5.4
G1 X120 Y80 E2 F1200
G1 X120 Y120 E2 F1200
G1 X80 Y120 E2 F1200
G1 X80 Y80 E2 F1200
G0 X80 Y80 Z5.6
G1 X120 Y80 E2 F1200
G1 X120 Y120 E2 F1200
G1 X80 Y120 E2 F1200
G1 X80 Y80 E2 F1200
G0 X80 Y80 Z5.8
G1 X120 Y80 E2 F1200
G1 X120 Y120 E2 F1200
G1 X80 Y120 E2 F1200
G1 X80 Y80 E2 F1200
G0 X80 Y80 Z6.0
G1 X120 Y80 E2 F1200
G1 X120 Y120 E2 F1200
G1 X80 Y120 E2 F1200
G1 X80 Y80 E2 F1200
G0 X80 Y80 Z6.2
G1 X120 Y80 E2 F1200
G1 X120 Y120 E2 F1200
G1 X80 Y120 E2 F1200
G1 X80 Y80 E2 F1200
G0 X80 Y80 Z6.4
G1 X120 Y80 E2 F1200
G1 X120 Y120 E2 F1200
G1 X80 Y120 E2 F1200
G1 X80 Y80 E2 F1200
G0 X80 Y80 Z6.6
G1 X120 Y80 E2 F1200
G1 X120 Y120 E2 F1200
G1 X80 Y120 E2 F1200
G1 X80 Y80 E2 F1200
G0 X80 Y80 Z6.8
G1 X120 Y80 E2 F1200
G1 X120 Y120 E2 F1200
G1 X80 Y120 E2 F1200
G1 X80 Y80 E2 F1200
G0 X80 Y80 Z7.0
G1 X120 Y80 E2 F1200
G1 X120 Y120 E2 F1200
G1 X80 Y120 E2 F1200
G1 X80 Y80 E2 F1200
G0 X80 Y80 Z7.2
G1 X120 Y80 E2 F1200
G1 X120 Y120 E2 F1200
G1 X80 Y120 E2 F1200
G1 X80 Y80 E2 F1200
G0 X80 Y80 Z7.4
G1 X120 Y80 E2 F1200
G1 X120 Y120 E2 F1200
G1 X80 Y120 E2 F1200
G1 X80 Y80 E2 F1200
G0 X80 Y80 Z7.6
G1 X120 Y80 E2 F1200
G1 X120 Y120 E2 F1200
G1 X80 Y120 E2 F1200
G1 X80 Y80 E2 F1200
G0 X80 Y80 Z7.8
G1 X120 Y80 E2 F1200
G1 X120 Y120 E2 F1200
G1 X80 Y120 E2 F1200
G1 X80 Y80 E2 F1200
G0 X80 Y80 Z8.0
G1 X120 Y80 E2 F1200
G1 X120 Y120 E2 F1200
G1 X80 Y120 E2 F1200
G1 X80 Y80 E2 F1200
G0 X80 Y80 Z8.2
G1 X120 Y80 E2 F1200
G1 X120 Y120 E2 F1200
G1 X80 Y120 E2 F1200
G1 X80 Y80 E2 F1200
G0 X80 Y80 Z8.4
G1 X120 Y80 E2 F1200
G1 X120 Y120 E2 F1200
G1 X80 Y120 E2 F1200
G1 X80 Y80 E2 F1200
G0 X80 Y80 Z8.6
G1 X120 Y80 E2 F1200
G1 X120 Y120 E2 F1200
G1 X80 Y120 E2 F1200
G1 X80 Y80 E2 F1200
G0 X80 Y80 Z8.8
G1 X120 Y80 E2 F1200
G1 X120 Y120 E2 F1200
G1 X80 Y120 E2 F1200
G1 X80 Y80 E2 F1200
G0 X80 Y80 Z9.0
G1 X120 Y80 E2 F1200
G1 X120 Y120 E2 F1200
G1 X80 Y120 E2 F1200
G1 X80 Y80 E2 F1200
G0 X80 Y80 Z9.2
G1 X120 Y80 E2 F1200
G1 X120 Y120 E2 F1200
G1 X80 Y120 E2 F1200
G1 X80 Y80 E2 F1200
G0 X80 Y80 Z9.4
G1 X120 Y80 E2 F1200
G1 X120 Y120 E2 F1200
G1 X80 Y120 E2 F1200
G1 X80 Y80 E2 F1200
G0 X80 Y80 Z9.6
G1 X120 Y80 E2 F1200
G1 X120 Y120 E2 F1200
G1 X80 Y120 E2 F1200
G1 X80 Y80 E2 F1200
G0 X80 Y80 Z9.8
G1 X120 Y80 E2 F1200
G1 X120 Y120 E2 F1200
G1 X80 Y120 E2 F1200
G1 X80 Y80 E2 F1200
G0 X80 Y80 Z10.0
G1 X120 Y80 E2 F1200
G1 X120 Y120 E2 F1200
G1 X80 Y120 E2 F1200
G1 X80 Y80 E2 F1200
G0 X80 Y80 Z10.2
G1 X120 Y80 E2 F1200
G1 X120 Y120 E2 F1200
G1 X80 Y120 E2 F1200
G1 X80 Y80 E2 F1200
G0 X80 Y80 Z10.4
G1 X120 Y80 E2 F1200
G1 X120 Y120 E2 F1200
G1 X80 Y120 E2 F1200
G1 X80 Y80 E2 F1200
G0 X80 Y80 Z10.6
G1 X120 Y80 E2 F1200
G1 X120 Y120 E2 F1200
G1 X80 Y120 E2 F1200
G1 X80 Y80 E2 F1200
G0 X80 Y80 Z10.8
G1 X120 Y80 E2 F1200
G1 X120 Y120 E2 F1200
G1 X80 Y120 E2 F1200
G1 X80 Y80 E2 F1200
G0 X80 Y80 Z11.0
G1 X120 Y80 E2 F1200
G1 X120 Y120 E2 F1200
G1 X80 Y120 E2 F1200
G1 X80 Y80 E2 F1200
G0 X80 Y80 Z11.2
G1 X120 Y80 E2 F1200
G1 X120 Y120 E2 F1200
G1 X80 Y120 E2 F1200
G1 X80 Y80 E2 F1200
G0 X80 Y80 Z11.4
G1 X120 Y80 E2 F1200
G1 X120 Y120 E2 F1200
G1 X80 Y120 E2 F1200
G1 X80 Y80 E2 F1200
G0 X80 Y80 Z11.6
G1 X120 Y80 E2 F1200
G1 X120 Y120 E2 F1200
G1 X80 Y120 E2 F1200
G1 X80 Y80 E2 F1200
G0 X80 Y80 Z11.8
G1 X120 Y80 E2 F1200
G1 X120 Y120 E2 F1200
G1 X80 Y120 E2 F1200
G1 X80 Y80 E2 F1200
G0 X80 Y80 Z12.0
G1 X120 Y80 E2 F1200
G1 X120 Y120 E2 F1200
G1 X80 Y120 E2 F1200
G1 X80 Y80 E2 F1200
G0 X80 Y80 Z12.2
G1 X120 Y80 E2 F1200
G1 X120 Y120 E2 F1200
G1 X80 Y120 E2 F1200
G1 X80 Y80 E2 F1200
G0 X80 Y80 Z12.4
G1 X120 Y80 E2 F1200
G1 X120 Y120 E2 F1200
G1 X80 Y120 E2 F1200
G1 X80 Y80 E2 F1200
G0 X80 Y80 Z12.6
G1 X120 Y80 E2 F1200
G1 X120 Y120 E2 F1200
G1 X80 Y120 E2 F1200
G1 X80 Y80 E2 F1200
G0 X80 Y80 Z12.8
G1 X120 Y80 E2 F1200
G1 X120 Y120 E2 F1200
G1 X80 Y120 E2 F1200
G1 X80 Y80 E2 F1200
G0 X80 Y80 Z13.0
G1 X120 Y80 E2 F1200
G1 X120 Y120 E2 F1200
G1 X80 Y120 E2 F1200
G1 X80 Y80 E2 F1200
G0 X80 Y80 Z13.2
G1 X120 Y80 E2 F1200
G1 X120 Y120 E2 F1200
G1 X80 Y120 E2 F1200
G1 X80 Y80 E2 F1200
G0 X80 Y80 Z13.4
G1 X120 Y80 E2 F1200
G1 X120 Y120 E2 F1200
G1 X80 Y120 E2 F1200
G1 X80 Y80 E2 F1200
G0 X80 Y80 Z13.6
G1 X120 Y80 E2 F1200
G1 X120 Y120 E2 F1200
G1 X80 Y120 E2 F1200
G1 X80 Y80 E2 F1200
G0 X80 Y80 Z13.8
G1 X120 Y80 E2 F1200
G1 X120 Y120 E2 F1200
G1 X80 Y120 E2 F1200
G1 X80 Y80 E2 F1200
G0 X80 Y80 Z14.0
G1 X120 Y80 E2 F1200
G1 X120 Y120 E2 F1200
G1 X80 Y120 E2 F1200
G1 X80 Y80 E2 F1200
G0 X80 Y80 Z14.2
G1 X120 Y80 E2 F1200
G1 X120 Y120 E2 F1200
G1 X80 Y120 E2 F1200
G1 X80 Y80 E2 F1200
G0 X80 Y80 Z14.4
G1 X120 Y80 E2 F1200
G1 X120 Y120 E2 F1200
G1 X80 Y120 E2 F1200
G1 X80 Y80 E2 F1200
G0 X80 Y80 Z14.6
G1 X120 Y80 E2 F1200
G1 X120 Y120 E2 F1200
G1 X80 Y120 E2 F1200
G1 X80 Y80 E2 F1200
G0 X80 Y80 Z14.8
G1 X120 Y80 E2 F1200
G1 X120 Y120 E2 F1200
G1 X80 Y120 E2 F1200
G1 X80 Y80 E2 F1200
G0 X80 Y80 Z15.0
G1 X120 Y80 E2 F1200
G1 X120 Y120 E2 F1200
G1 X80 Y120 E2 F1200
G1 X80 Y80 E2 F1200
G0 X80 Y80 Z15.2
G1 X120 Y80 E2 F1200
G1 X120 Y120 E2 F1200
G1 X80 Y120 E2 F1200
G1 X80 Y80 E2 F1200
G0 X80 Y80 Z15.4
G1 X120 Y80 E2 F1200
G1 X120 Y120 E2 F1200
G1 X80 Y120 E2 F1200
G1 X80 Y80 E2 F1200
G0 X80 Y80 Z15.6
G1 X120 Y80 E2 F1200
G1 X120 Y120 E2 F1200
G1 X80 Y120 E2 F1200
G1 X80 Y80 E2 F1200
G0 X80 Y80 Z15.8
G1 X120 Y80 E2 F1200
G1 X120 Y120 E2 F1200
G1 X80 Y120 E2 F1200
G1 X80 Y80 E2 F1200
G0 X80 Y80 Z16.0
G1 X120 Y80 E2 F1200
G1 X120 Y120 E2 F1200
G1 X80 Y120 E2 F1200
G1 X80 Y80 E2 F1200
G0 X80 Y80 Z16.2
G1 X120 Y80 E2 F1200
G1 X120 Y120 E2 F1200
G1 X80 Y120 E2 F1200
G1 X80 Y80 E2 F1200
G0 X80 Y80 Z16.4
G1 X120 Y80 E2 F1200
G1 X120 Y120 E2 F1200
G1 X80 Y120 E2 F1200
G1 X80 Y80 E2 F1200
G0 X80 Y80 Z16.6
G1 X120 Y80 E2 F1200
G1 X120 Y120 E2 F1200
G1 X80 Y120 E2 F1200
G1 X80 Y80 E2 F1200
G0 X80 Y80 Z16.8
G1 X120 Y80 E2 F1200
G1 X120 Y120 E2 F1200
G1 X80 Y120 E2 F1200
G1 X80 Y80 E2 F1200
G0 X80 Y80 Z17.0
G1 X120 Y80 E2 F1200
G1 X120 Y120 E2 F1200
G1 X80 Y120 E2 F1200
G1 X80 Y80 E2 F1200
G0 X80 Y80 Z17.2
G1 X120 Y80 E2 F1200
G1 X120 Y120 E2 F1200
G1 X80 Y120 E2 F1200
G1 X80 Y80 E2 F1200
G0 X80 Y80 Z17.4
G1 X120 Y80 E2 F1200
G1 X120 Y120 E2 F1200
G1 X80 Y120 E2 F1200
G1 X80 Y80 E2 F1200
G0 X80 Y80 Z17.6
G1 X120 Y80 E2 F1200
G1 X120 Y120 E2 F1200
G1 X80 Y120 E2 F1200
G1 X80 Y80 E2 F1200
G0 X80 Y80 Z17.8
G1 X120 Y80 E2 F1200
G1 X120 Y120 E2 F1200
G1 X80 Y120 E2 F1200
G1 X80 Y80 E2 F1200
G0 X80 Y80 Z18.0
G1 X120 Y80 E2 F1200
G1 X120 Y120 E2 F1200
G1 X80 Y120 E2 F1200
G1 X80 Y80 E2 F1200
G0 X80 Y80 Z18.2
G1 X120 Y80 E2 F1200
G1 X120 Y120 E2 F1200
G1 X80 Y120 E2 F1200
G1 X80 Y80 E2 F1200
G0 X80 Y80 Z18.4
G1 X120 Y80 E2 F1200
G1 X120 Y120 E2 F1200
G1 X80 Y120 E2 F1200
G1 X80 Y80 E2 F1200
G0 X80 Y80 Z18.6
G1 X120 Y80 E2 F1200
G1 X120 Y120 E2 F1200
G1 X80 Y120 E2 F1200
G1 X80 Y80 E2 F1200
G0 X80 Y80 Z18.8
G1 X120 Y80 E2 F1200
G1 X120 Y120 E2 F1200
G1 X80 Y120 E2 F1200
G1 X80 Y80 E2 F1200
G0 X80 Y80 Z19.0
G1 X120 Y80 E2 F1200
G1 X120 Y120 E2 F1200
G1 X80 Y120 E2 F1200
G1 X80 Y80 E2 F1200
G0 X80 Y80 Z19.2
G1 X120 Y80 E2 F1200
G1 X120 Y120 E2 F1200
G1 X80 Y120 E2 F1200
G1 X80 Y80 E2 F1200
G0 X80 Y80 Z19.4
G1 X120 Y80 E2 F1200
G1 X120 Y120 E2 F1200
G1 X80 Y120 E2 F1200
G1 X80 Y80 E2 F1200
G0 X80 Y80 Z19.6
G1 X120 Y80 E2 F1200
G1 X120 Y120 E2 F1200
G1 X80 Y120 E2 F1200
G1 X80 Y80 E2 F1200
G0 X80 Y80 Z19.8
G1 X120 Y80 E2 F1200
G1 X120 Y120 E2 F1200
G1 X80 Y120 E2 F1200
G1 X80 Y80 E2 F1200
G0 X80 Y80 Z20.0
G1 X120 Y80 E2 F1200
G1 X120 Y120 E2 F1200
G1 X80 Y120 E2 F1200
G1 X80 Y80 E2 F1200
G0 X80 Y80 Z20.2
G1 X120 Y80 E2 F1200
G1 X120 Y120 E2 F1200
G1 X80 Y120 E2 F1200
G1 X80 Y80 E2 F1200
G0 X80 Y80 Z20.4
G1 X120 Y80 E2 F1200
G1 X120 Y120 E2 F1200
G1 X80 Y120 E2 F1200
G1 X80 Y80 E2 F1200
G0 X80 Y80 Z20.6
G1 X120 Y80 E2 F1200
G1 X120 Y120 E2 F1200
G1 X80 Y120 E2 F1200
G1 X80 Y80 E2 F1200
G0 X80 Y80 Z20.8
G1 X120 Y80 E2 F1200
G1 X120 Y120 E2 F1200
G1 X80 Y120 E2 F1200
G1 X80 Y80 E2 F1200
G0 X80 Y80 Z21.0
G1 X120 Y80 E2 F1200
G1 X120 Y120 E2 F1200
G1 X80 Y120 E2 F1200
G1 X80 Y80 E2 F1200
G0 X80 Y80 Z21.2
G1 X120 Y80 E2 F1200
G1 X120 Y120 E2 F1200
G1 X80 Y120 E2 F1200
G1 X80 Y80 E2 F1200
G0 X80 Y80 Z21.4
G1 X120 Y80 E2 F1200
G1 X120 Y120 E2 F1200
G1 X80 Y120 E2 F1200
G1 X80 Y80 E2 F1200
G0 X80 Y80 Z21.6
G1 X120 Y80 E2 F1200
G1 X120 Y120 E2 F1200
G1 X80 Y120 E2 F1200
G1 X80 Y80 E2 F1200
G0 X80 Y80 Z21.8
G1 X120 Y80 E2 F1200
G1 X120 Y120 E2 F1200
G1 X80 Y120 E2 F1200
G1 X80 Y80 E2 F1200
G0 X80 Y80 Z22.0
G1 X120 Y80 E2 F1200
G1 X120 Y120 E2 F1200
G1 X80 Y120 E2 F1200
G1 X80 Y80 E2 F1200
G0 X80 Y80 Z22.2
G1 X120 Y80 E2 F1200
G1 X120 Y120 E2 F1200
G1 X80 Y120 E2 F1200
G1 X80 Y80 E2 F1200
G0 X80 Y80 Z22.4
G1 X120 Y80 E2 F1200
G1 X120 Y120 E2 F1200
G1 X80 Y120 E2 F1200
G1 X80 Y80 E2 F1200
G0 X80 Y80 Z22.6
G1 X120 Y80 E2 F1200
G1 X120 Y120 E2 F1200
G1 X80 Y120 E2 F1200
G1 X80 Y80 E2 F1200
G0 X80 Y80 Z22.8
G1 X120 Y80 E2 F1200
G1 X120 Y120 E2 F1200
G1 X80 Y120 E2 F1200
G1 X80 Y80 E2 F1200
G0 X80 Y80 Z23.0
G1 X120 Y80 E2 F1200
G1 X120 Y120 E2 F1200
G1 X80 Y120 E2 F1200
G1 X80 Y80 E2 F1200
G0 X80 Y80 Z23.2
G1 X120 Y80 E2 F1200
G1 X120 Y120 E2 F1200
G1 X80 Y120 E2 F1200
G1 X80 Y80 E2 F1200
G0 X80 Y80 Z23.4
G1 X120 Y80 E2 F1200
G1 X120 Y120 E2 F1200
G1 X80 Y120 E2 F1200
G1 X80 Y80 E2 F1200
G0 X80 Y80 Z23.6
G1 X120 Y80 E2 F1200
G1 X120 Y120 E2 F1200
G1 X80 Y120 E2 F1200
G1 X80 Y80 E2 F1200
G0 X80 Y80 Z23.8
G1 X120 Y80 E2 F1200
G1 X120 Y120 E2 F1200
G1 X80 Y120 E2 F1200
G1 X80 Y80 E2 F1200
G0 X80 Y80 Z24.0
G1 X120 Y80 E2 F1200
G1 X120 Y120 E2 F1200
G1 X80 Y120 E2 F1200
G1 X80 Y80 E2 F1200
G0 X80 Y80 Z24.2
G1 X120 Y80 E2 F1200
G1 X120 Y120 E2 F1200
G1 X80 Y120 E2 F1200
G1 X80 Y80 E2 F1200
G0 X80 Y80 Z24.4
G1 X120 Y80 E2 F1200
G1 X120 Y120 E2 F1200
G1 X80 Y120 E2 F1200
G1 X80 Y80 E2 F1200
G0 X80 Y80 Z24.6
G1 X120 Y80 E2 F1200
G1 X120 Y120 E2 F1200
G1 X80 Y120 E2 F1200
G1 X80 Y80 E2 F1200
G0 X80 Y80 Z24.8
G1 X120 Y80 E2 F1200
G1 X120 Y120 E2 F1200
G1 X80 Y120 E2 F1200
G1 X80 Y80 E2 F1200
G0 X80 Y80 Z25.0
G1 X120 Y80 E2 F1200
G1 X120 Y120 E2 F1200
G1 X80 Y120 E2 F1200
G1 X80 Y80 E2 F1200
G0 X80 Y80 Z25.2
G1 X120 Y80 E2 F1200
G1 X120 Y120 E2 F1200
G1 X80 Y120 E2 F1200
G1 X80 Y80 E2 F1200
G0 X80 Y80 Z25.4
G1 X120 Y80 E2 F1200
G1 X120 Y120 E2 F1200
G1 X80 Y120 E2 F1200
G1 X80 Y80 E2 F1200
G0 X80 Y80 Z25.6
G1 X120 Y80 E2 F1200
G1 X120 Y120 E2 F1200
G1 X80 Y120 E2 F1200
G1 X80 Y80 E2 F1200
G0 X80 Y80 Z25.8
G1 X120 Y80 E2 F1200
G1 X120 Y120 E2 F1200
G1 X80 Y120 E2 F1200
G1 X80 Y80 E2 F1200
G0 X80 Y80 Z26.0
G1 X120 Y80 E2 F1200
G1 X120 Y120 E2 F1200
G1 X80 Y120 E2 F1200
G1 X80 Y80 E2 F1200
G0 X80 Y80 Z26.2
G1 X120 Y80 E2 F1200
G1 X120 Y120 E2 F1200
G1 X80 Y120 E2 F1200
G1 X80 Y80 E2 F1200
G0 X80 Y80 Z26.4
G1 X120 Y80 E2 F1200
G1 X120 Y120 E2 F1200
G1 X80 Y120 E2 F1200
G1 X80 Y80 E2 F1200
G0 X80 Y80 Z26.6
G1 X120 Y80 E2 F1200
G1 X120 Y120 E2 F1200
G1 X80 Y120 E2 F1200
G1 X80 Y80 E2 F1200
G0 X80 Y80 Z26.8
G1 X120 Y80 E2 F1200
G1 X120 Y120 E2 F1200
G1 X80 Y120 E2 F1200
G1 X80 Y80 E2 F1200
G0 X80 Y80 Z27.0
G1 X120 Y80 E2 F1200
G1 X120 Y120 E2 F1200
G1 X80 Y120 E2 F1200
G1 X80 Y80 E2 F1200
G0 X80 Y80 Z27.2
G1 X120 Y80 E2 F1200
G1 X120 Y120 E2 F1200
G1 X80 Y120 E2 F1200
G1 X80 Y80 E2 F1200
G0 X80 Y80 Z27.4
G1 X120 Y80 E2 F1200
G1 X120 Y120 E2 F1200
G1 X80 Y120 E2 F1200
G1 X80 Y80 E2 F1200
G0 X80 Y80 Z27.6
G1 X120 Y80 E2 F1200
G1 X120 Y120 E2 F1200
G1 X80 Y120 E2 F1200
G1 X80 Y80 E2 F1200
G0 X80 Y80 Z27.8
G1 X120 Y80 E2 F1200
G1 X120 Y120 E2 F1200
G1 X80 Y120 E2 F1200
G1 X80 Y80 E2 F1200
G0 X80 Y80 Z28.0
G1 X120 Y80 E2 F1200
G1 X120 Y120 E2 F1200
G1 X80 Y120 E2 F1200
G1 X80 Y80 E2 F1200
G0 X80 Y80 Z28.2
G1 X120 Y80 E2 F1200
G1 X120 Y120 E2 F1200
G1 X80 Y120 E2 F1200
G1 X80 Y80 E2 F1200
G0 X80 Y80 Z28.4
G1 X120 Y80 E2 F1200
G1 X120 Y120 E2 F1200
G1 X80 Y120 E2 F1200
G1 X80 Y80 E2 F1200
G0 X80 Y80 Z28.6
G1 X120 Y80 E2 F1200
G1 X120 Y120 E2 F1200
G1 X80 Y120 E2 F1200
G1 X80 Y80 E2 F1200
G0 X80 Y80 Z28.8
G1 X120 Y80 E2 F1200
G1 X120 Y120 E2 F1200
G1 X80 Y120 E2 F1200
G1 X80 Y80 E2 F1200
G0 X80 Y80 Z29.0
G1 X120 Y80 E2 F1200
G1 X120 Y120 E2 F1200
G1 X80 Y120 E2 F1200
G1 X80 Y80 E2 F1200
G0 X80 Y80 Z29.2
G1 X120 Y80 E2 F1200
G1 X120 Y120 E2 F1200
G1 X80 Y120 E2 F1200
G1 X80 Y80 E2 F1200
G0 X80 Y80 Z29.4
G1 X120 Y80 E2 F1200
G1 X120 Y120 E2 F1200
G1 X80 Y120 E2 F1200
G1 X80 Y80 E2 F1200
G0 X80 Y80 Z29.6
G1 X120 Y80 E2 F1200
G1 X120 Y120 E2 F1200
G1 X80 Y120 E2 F1200
G1 X80 Y80 E2 F1200
G0 X80 Y80 Z29.8
G1 X120 Y80 E2 F1200
G1 X120 Y120 E2 F1200
G1 X80 Y120 E2 F1200
G1 X80 Y80 E2 F1200
G0 X80 Y80 Z30.0
G1 X120 Y80 E2 F1200
G1 X120 Y120 E2 F1200
G1 X80 Y120 E2 F1200
G1 X80 Y80 E2 F1200
G0 X80 Y80 Z30.2
G1 X120 Y80 E2 F1200
G1 X120 Y120 E2 F1200
G1 X80 Y120 E2 F1200
G1 X80 Y80 E2 F1200
G0 X80 Y80 Z30.4
G1 X120 Y80 E2 F1200
G1 X120 Y120 E2 F1200
G1 X80 Y120 E2 F1200
G1 X80 Y80 E2 F1200
G0 X80 Y80 Z30.6
G1 X120 Y80 E2 F1200
G1 X120 Y120 E2 F1200
G1 X80 Y120 E2 F1200
G1 X80 Y80 E2 F1200
G0 X80 Y80 Z30.8
G1 X120 Y80 E2 F1200
G1 X120 Y120 E2 F1200
G1 X80 Y120 E2 F1200
G1 X80 Y80 E2 F1200
G0 X80 Y80 Z31.0
G1 X120 Y80 E2 F1200
G1 X120 Y120 E2 F1200
G1 X80 Y120 E2 F1200
G1 X80 Y80 E2 F1200
G0 X80 Y80 Z31.2
G1 X120 Y80 E2 F1200
G1 X120 Y120 E2 F1200
G1 X80 Y120 E2 F1200
G1 X80 Y80 E2 F1200
G0 X80 Y80 Z31.4
G1 X120 Y80 E2 F1200
G1 X120 Y120 E2 F1200
G1 X80 Y120 E2 F1200
G1 X80 Y80 E2 F1200
G0 X80 Y80 Z31.6
G1 X120 Y80 E2 F1200
G1 X120 Y120 E2 F1200
G1 X80 Y120 E2 F1200
G1 X80 Y80 E2 F1200
G0 X80 Y80 Z31.8
G1 X120 Y80 E2 F1200
G1 X120 Y120 E2 F1200
G1 X80 Y120 E2 F1200
G1 X80 Y80 E2 F1200
G0 X80 Y80 Z32.0
G1 X120 Y80 E2 F1200
G1 X120 Y120 E2 F1200
G1 X80 Y120 E2 F1200
G1 X80 Y80 E2 F1200
G0 X80 Y80 Z32.2
G1 X120 Y80 E2 F1200
G1 X120 Y120 E2 F1200
G1 X80 Y120 E2 F1200
G1 X80 Y80 E2 F1200
G0 X80 Y80 Z32.4
G1 X120 Y80 E2 F1200
G1 X120 Y120 E2 F1200
G1 X80 Y120 E2 F1200
G1 X80 Y80 E2 F1200
G0 X80 Y80 Z32.6
G1 X120 Y80 E2 F1200
G1 X120 Y120 E2 F1200
G1 X80 Y120 E2 F1200
G1 X80 Y80 E2 F1200
G0 X80 Y80 Z32.8
G1 X120 Y80 E2 F1200
G1 X120 Y120 E2 F1200
G1 X80 Y120 E2 F1200
G1 X80 Y80 E2 F1200
G0 X80 Y80 Z33.0
G1 X120 Y80 E2 F1200
G1 X120 Y120 E2 F1200
G1 X80 Y120 E2 F1200
G1 X80 Y80 E2 F1200
G0 X80 Y80 Z33.2
G1 X120 Y80 E2 F1200
G1 X120 Y120 E2 F1200
G1 X80 Y120 E2 F1200
G1 X80 Y80 E2 F1200
G0 X80 Y80 Z33.4
G1 X120 Y80 E2 F1200
G1 X120 Y120 E2 F1200
G1 X80 Y120 E2 F1200
G1 X80 Y80 E2 F1200
G0 X80 Y80 Z33.6
G1 X120 Y80 E2 F1200
G1 X120 Y120 E2 F1200
G1 X80 Y120 E2 F1200
G1 X80 Y80 E2 F1200
G0 X80 Y80 Z33.8
G1 X120 Y80 E2 F1200
G1 X120 Y120 E2 F1200
G1 X80 Y120 E2 F1200
G1 X80 Y80 E2 F1200
G0 X80 Y80 Z34.0
G1 X120 Y80 E2 F1200
G1 X120 Y120 E2 F1200
G1 X80 Y120 E2 F1200
G1 X80 Y80 E2 F1200
G0 X80 Y80 Z34.2
G1 X120 Y80 E2 F1200
G1 X120 Y120 E2 F1200
G1 X80 Y120 E2 F1200
G1 X80 Y80 E2 F1200
G0 X80 Y80 Z34.4
G1 X120 Y80 E2 F1200
G1 X120 Y120 E2 F1200
G1 X80 Y120 E2 F1200
G1 X80 Y80 E2 F1200
G0 X80 Y80 Z34.6
G1 X120 Y80 E2 F1200
G1 X120 Y120 E2 F1200
G1 X80 Y120 E2 F1200
G1 X80 Y80 E2 F1200
G0 X80 Y80 Z34.8
G1 X120 Y80 E2 F1200
G1 X120 Y120 E2 F1200
G1 X80 Y120 E2 F1200
G1 X80 Y80 E2 F1200
G0 X80 Y80 Z35.0
G1 X120 Y80 E2 F1200
G1 X120 Y120 E2 F1200
G1 X80 Y120 E2 F1200
G1 X80 Y80 E2 F1200
G0 X80 Y80 Z35.2
G1 X120 Y80 E2 F1200
G1 X120 Y120 E2 F1200
G1 X80 Y120 E2 F1200
G1 X80 Y80 E2 F1200
G0 X80 Y80 Z35.4
G1 X120 Y80 E2 F1200
G1 X120 Y120 E2 F1200
G1 X80 Y120 E2 F1200
G1 X80 Y80 E2 F1200
G0 X80 Y80 Z35.6
G1 X120 Y80 E2 F1200
G1 X120 Y120 E2 F1200
G1 X80 Y120 E2 F1200
G1 X80 Y80 E2 F1200
G0 X80 Y80 Z35.8
G1 X120 Y80 E2 F1200
G1 X120 Y120 E2 F1200
G1 X80 Y120 E2 F1200
G1 X80 Y80 E2 F1200
G0 X80 Y80 Z36.0
G1 X120 Y80 E2 F1200
G1 X120 Y120 E2 F1200
G1 X80 Y120 E2 F1200
G1 X80 Y80 E2 F1200
G0 X80 Y80 Z36.2
G1 X120 Y80 E2 F1200
G1 X120 Y120 E2 F1200
G1 X80 Y120 E2 F1200
G1 X80 Y80 E2 F1200
G0 X80 Y80 Z36.4
G1 X120 Y80 E2 F1200
G1 X120 Y120 E2 F1200
G1 X80 Y120 E2 F1200
G1 X80 Y80 E2 F1200
G0 X80 Y80 Z36.6
G1 X120 Y80 E2 F1200
G1 X120 Y120 E2 F1200
G1 X80 Y120 E2 F1200
G1 X80 Y80 E2 F1200
G0 X80 Y80 Z36.8
G1 X120 Y80 E2 F1200
G1 X120 Y120 E2 F1200
G1 X80 Y120 E2 F1200
G1 X80 Y80 E2 F1200
G0 X80 Y80 Z37.0
G1 X120 Y80 E2 F1200
G1 X120 Y120 E2 F1200
G1 X80 Y120 E2 F1200
G1 X80 Y80 E2 F1200
G0 X80 Y80 Z37.2
G1 X120 Y80 E2 F1200
G1 X120 Y120 E2 F1200
G1 X80 Y120 E2 F1200
G1 X80 Y80 E2 F1200
G0 X80 Y80 Z37.4
G1 X120 Y80 E2 F1200
G1 X120 Y120 E2 F1200
G1 X80 Y120 E2 F1200
G1 X80 Y80 E2 F1200
G0 X80 Y80 Z37.6
G1 X120 Y80 E2 F1200
G1 X120 Y120 E2 F1200
G1 X80 Y120 E2 F1200
G1 X80 Y80 E2 F1200
G0 X80 Y80 Z37.8
G1 X120 Y80 E2 F1200
G1 X120 Y120 E2 F1200
G1 X80 Y120 E2 F1200
G1 X80 Y80 E2 F1200
G0 X80 Y80 Z38.0
G1 X120 Y80 E2 F1200
G1 X120 Y120 E2 F1200
G1 X80 Y120 E2 F1200
G1 X80 Y80 E2 F1200
G0 X80 Y80 Z38.2
G1 X120 Y80 E2 F1200
G1 X120 Y120 E2 F1200
G1 X80 Y120 E2 F1200
G1 X80 Y80 E2 F1200
G0 X80 Y80 Z38.4
G1 X120 Y80 E2 F1200
G1 X120 Y120 E2 F1200
G1 X80 Y120 E2 F1200
G1 X80 Y80 E2 F1200
G0 X80 Y80 Z38.6
G1 X120 Y80 E2 F1200
G1 X120 Y120 E2 F1200
G1 X80 Y120 E2 F1200
G1 X80 Y80 E2 F1200
G0 X80 Y80 Z38.8
G1 X120 Y80 E2 F1200
G1 X120 Y120 E2 F1200
G1 X80 Y120 E2 F1200
G1 X80 Y80 E2 F1200
G0 X80 Y80 Z39.0
G1 X120 Y80 E2 F1200
G1 X120 Y120 E2 F1200
G1 X80 Y120 E2 F1200
G1 X80 Y80 E2 F1200
G0 X80 Y80 Z39.2
G1 X120 Y80 E2 F1200
G1 X120 Y120 E2 F1200
G1 X80 Y120 E2 F1200
G1 X80 Y80 E2 F1200
G0 X80 Y80 Z39.4
G1 X120 Y80 E2 F1200
G1 X120 Y120 E2 F1200
G1 X80 Y120 E2 F1200
G1 X80 Y80 E2 F1200
G0 X80 Y80 Z39.6
G1 X120 Y80 E2 F1200
G1 X120 Y120 E2 F1200
G1 X80 Y120 E2 F1200
G1 X80 Y80 E2 F1200
G0 X80 Y80 Z39.8
G1 X120 Y80 E2 F1200
G1 X120 Y120 E2 F1200
G1 X80 Y120 E2 F1200
G1 X80 Y80 E2 F1200
G0 X80 Y80 Z40.0
G1 X120 Y80 E2 F1200
G1 X120 Y120 E2 F1200
G1 X80 Y120 E2 F1200
G1 X80 Y80 E2 F1200
